STARLINK-4071           
1 52671U 22053R   26068.51092448 -.00001953  00000+0 -10473-3 0  9995
2 52671  53.2164 154.9249 0001257  86.5025 273.6111 15.08824215211011
RAISE-4                 
1 67073U 25297B   26068.97636248  .00005682  00000+0  37087-3 0  9993
2 67073  97.4953 219.2703 0012713  22.7159 337.4629 15.08174958 12933
